CCSDS_OMM_VERS,COMMENT,CREATION_DATE,ORIGINATOR,OBJECT_NAME,OBJECT_ID,CENTER_NAME,REF_FRAME,TIME_SYSTEM,MEAN_ELEMENT_THEORY,EPOCH,MEAN_MOTION,ECCENTRICITY,INCLINATION,RA_OF_ASC_NODE,ARG_OF_PERICENTER,MEAN_ANOMALY,EPHEMERIS_TYPE,CLASSIFICATION_TYPE,NORAD_CAT_ID,ELEMENT_SET_NO,REV_AT_EPOCH,BSTAR,MEAN_MOTION_DOT,MEAN_MOTION_DDOT,SEMIMAJOR_AXIS,PERIOD,APOAPSIS,PERIAPSIS,OBJECT_TYPE,RCS_SIZE,COUNTRY_CODE,LAUNCH_DATE,SITE,DECAY_DATE,FILE,GP_ID,TLE_LINE0,TLE_LINE1,TLE_LINE2
2,GENERATED VIA SPACE-TRACK.ORG API,2009-05-01T09:13:28,18 SPCS,JCSAT 2,1990-001B,EARTH,TEME,UTC,SGP4,2009-04-30T12:05:53.680127,0.98536701,0.0061609,7.2021,79.1075,153.9115,206.3333,0,U,20402,999,5368,0.0001,-2.7e-07,0,42658.289,1461.384,36542.968,36017.341,PAYLOAD,MEDIUM,JPN,1990-01-01,AFETR,,708681,71019471,0 JCSAT 2,1 20402U 90001B   09120.50409352 -.00000027  00000-0  10000-3 0  9992,2 20402 007.2021 079.1075 0061609 153.9115 206.3333 00.98536701 53689
2,GENERATED VIA SPACE-TRACK.ORG API,2009-05-02T09:13:42,18 SPCS,JCSAT 2,1990-001B,EARTH,TEME,UTC,SGP4,2009-05-01T12:27:13.689216,0.98537169,0.006159,7.2049,79.0896,153.9025,206.3547,0,U,20402,999,5369,0.0001,-5.4e-07,0,42658.154,1461.377,36542.751,36017.288,PAYLOAD,MEDIUM,JPN,1990-01-01,AFETR,,709112,71034379,0 JCSAT 2,1 20402U 90001B   09121.51890844 -.00000054  00000-0  10000-3 0  9994,2 20402 007.2049 079.0896 0061590 153.9025 206.3547 00.98537169 53695
2,GENERATED VIA SPACE-TRACK.ORG API,2009-05-03T07:28:50,18 SPCS,JCSAT 2,1990-001B,EARTH,TEME,UTC,SGP4,2009-05-02T12:48:32.272703,0.98537641,0.0061589,7.2075,79.0733,153.9121,206.3521,0,U,20402,999,5370,0.0001,-8.2e-07,0,42658.018,1461.37,36542.609,36017.157,PAYLOAD,MEDIUM,JPN,1990-01-01,AFETR,,709352,71046704,0 JCSAT 2,1 20402U 90001B   09122.53370686 -.00000082  00000-0  10000-3 0  9995,2 20402 007.2075 079.0733 0061589 153.9121 206.3521 00.98537641 53708
2,GENERATED VIA SPACE-TRACK.ORG API,2009-05-03T16:59:38,18 SPCS,JCSAT 2,1990-001B,EARTH,TEME,UTC,SGP4,2009-05-03T13:09:49.250879,0.98538105,0.0061617,7.2102,79.0576,153.9052,206.3614,0,U,20402,999,5371,0.0001,-1.09e-06,0,42657.884,1461.363,36542.594,36016.904,PAYLOAD,MEDIUM,JPN,1990-01-01,AFETR,,709629,71059654,0 JCSAT 2,1 20402U 90001B   09123.54848670 -.00000109  00000-0  10000-3 0  9990,2 20402 007.2102 079.0576 0061617 153.9052 206.3614 00.98538105 53719
2,GENERATED VIA SPACE-TRACK.ORG API,2009-05-05T10:42:46,18 SPCS,JCSAT 2,1990-001B,EARTH,TEME,UTC,SGP4,2009-05-03T13:09:49.393439,0.9853807,0.006156,7.2102,79.0573,153.9329,206.3334,0,U,20402,999,5371,0.0001,-1.08e-06,0,42657.894,1461.364,36542.361,36017.157,PAYLOAD,MEDIUM,JPN,1990-01-01,AFETR,,710422,71083725,0 JCSAT 2,1 20402U 90001B   09123.54848835 -.00000108 +00000-0 +10000-3 0  9992,2 20402 007.2102 079.0573 0061560 153.9329 206.3334 00.98538070053710
2,GENERATED VIA SPACE-TRACK.ORG API,2009-05-14T01:59:31,18 SPCS,JCSAT 2,1990-001B,EARTH,TEME,UTC,SGP4,2009-05-13T16:41:59.016480,0.98538652,0.0061596,7.2359,78.891,154.3316,205.8551,0,U,20402,999,5381,0.0001,-1.68e-06,0,42657.726,1461.355,36542.346,36016.837,PAYLOAD,MEDIUM,JPN,1990-01-01,AFETR,,714472,71208970,0 JCSAT 2,1 20402U 90001B   09133.69582195 -.00000168  00000-0  10000-3 0  9999,2 20402 007.2359 078.8910 0061596 154.3316 205.8551 00.98538652 53818
2,GENERATED VIA SPACE-TRACK.ORG API,2009-05-16T08:48:06,18 SPCS,JCSAT 2,1990-001B,EARTH,TEME,UTC,SGP4,2009-05-14T17:03:08.316288,0.98538704,0.0061496,7.239,78.8744,154.4161,205.7536,0,U,20402,999,5382,0.0001,-1.47e-06,0,42657.711,1461.354,36541.904,36017.248,PAYLOAD,MEDIUM,JPN,1990-01-01,AFETR,,715610,71245011,0 JCSAT 2,1 20402U 90001B   09134.71051292 -.00000147 +00000-0 +10000-3 0  9999,2 20402 007.2390 078.8744 0061496 154.4161 205.7536 00.98538704053827
2,GENERATED VIA SPACE-TRACK.ORG API,2009-05-15T00:58:21,18 SPCS,JCSAT 2,1990-001B,EARTH,TEME,UTC,SGP4,2009-05-14T17:03:11.117376,0.98538719,0.0061654,7.239,78.8751,154.4194,205.7632,0,U,20402,999,5382,0.0001,-1.48e-06,0,42657.707,1461.354,36542.574,36016.57,PAYLOAD,MEDIUM,JPN,1990-01-01,AFETR,,714971,71224655,0 JCSAT 2,1 20402U 90001B   09134.71054534 -.00000148  00000-0  10000-3 0  9992,2 20402 007.2390 078.8751 0061654 154.4194 205.7632 00.98538719 53820
2,GENERATED VIA SPACE-TRACK.ORG API,2009-05-17T09:07:24,18 SPCS,JCSAT 2,1990-001B,EARTH,TEME,UTC,SGP4,2009-05-16T17:45:45.582623,0.98538138,0.0060934,7.244,78.8457,153.5559,206.6241,0,U,20402,999,5384,0.0001,-9.8e-07,0,42657.875,1461.363,36539.671,36019.808,PAYLOAD,MEDIUM,JPN,1990-01-01,AFETR,,716020,71264413,0 JCSAT 2,1 20402U 90001B   09136.74011091 -.00000098  00000-0  10000-3 0  9992,2 20402 007.2440 078.8457 0060934 153.5559 206.6241 00.98538138 53847
2,GENERATED VIA SPACE-TRACK.ORG API,2009-05-19T09:10:45,18 SPCS,JCSAT 2,1990-001B,EARTH,TEME,UTC,SGP4,2009-05-18T18:28:24.308255,0.9853766,0.0060745,7.2487,78.8134,153.6451,206.5595,0,U,20402,999,5386,0.0001,-4.5e-07,0,42658.013,1461.37,36539.004,36020.751,PAYLOAD,MEDIUM,JPN,1990-01-01,AFETR,,716944,71294167,0 JCSAT 2,1 20402U 90001B   09138.76972579 -.00000045  00000-0  10000-3 0  9995,2 20402 007.2487 078.8134 0060745 153.6451 206.5595 00.98537660 53864
2,GENERATED VIA SPACE-TRACK.ORG API,2009-05-20T09:06:13,18 SPCS,JCSAT 2,1990-001B,EARTH,TEME,UTC,SGP4,2009-05-19T18:49:38.572607,0.98537196,0.0060929,7.2512,78.7967,153.7215,206.4708,0,U,20402,999,5387,0.0001,-2.1e-07,0,42658.146,1461.377,36539.923,36020.1,PAYLOAD,MEDIUM,JPN,1990-01-01,AFETR,,717397,71308562,0 JCSAT 2,1 20402U 90001B   09139.78447422 -.00000021  00000-0  10000-3 0  9996,2 20402 007.2512 078.7967 0060929 153.7215 206.4708 00.98537196 53879
2,GENERATED VIA SPACE-TRACK.ORG API,2009-05-26T09:12:15,18 SPCS,JCSAT 2,1990-001B,EARTH,TEME,UTC,SGP4,2009-05-25T20:57:00.607680,0.98536867,0.0060949,7.2662,78.6983,153.9014,206.1987,0,U,20402,999,5393,0.0001,3.2e-07,0,42658.241,1461.381,36540.104,36020.109,PAYLOAD,MEDIUM,JPN,1990-01-01,AFETR,,719981,71397422,0 JCSAT 2,1 20402U 90001B   09145.87292370  .00000032  00000-0  10000-3 0  9994,2 20402 007.2662 078.6983 0060949 153.9014 206.1987 00.98536867 53930
2,GENERATED VIA SPACE-TRACK.ORG API,2009-05-27T09:19:43,18 SPCS,JCSAT 2,1990-001B,EARTH,TEME,UTC,SGP4,2009-05-25T20:57:01.202112,0.98536368,0.0061305,7.2665,78.696,153.5226,206.5623,0,U,20402,999,5393,0.0001,3.2e-07,0,42658.385,1461.389,36541.768,36018.733,PAYLOAD,MEDIUM,JPN,1990-01-01,AFETR,,720479,71411855,0 JCSAT 2,1 20402U 90001B   09145.87293058  .00000032  00000-0  10000-3 0  9998,2 20402 007.2665 078.6960 0061305 153.5226 206.5623 00.98536368 53933
2,GENERATED VIA SPACE-TRACK.ORG API,2009-05-28T05:51:34,18 SPCS,JCSAT 2,1990-001B,EARTH,TEME,UTC,SGP4,2009-05-26T21:18:25.716096,0.98536264,0.0061592,7.2692,78.6804,153.3594,206.7414,0,U,20402,999,5394,0.0001,2.2e-07,0,42658.415,1461.39,36543.022,36017.539,PAYLOAD,MEDIUM,JPN,1990-01-01,AFETR,,720978,71418420,0 JCSAT 2,1 20402U 90001B   09146.88779764  .00000022  00000-0  10000-3 0  9992,2 20402 007.2692 078.6804 0061592 153.3594 206.7414 00.98536264 53940
2,GENERATED VIA SPACE-TRACK.ORG API,2009-05-29T09:12:02,18 SPCS,JCSAT 2,1990-001B,EARTH,TEME,UTC,SGP4,2009-05-27T21:39:50.057280,0.98536506,0.0061524,7.2716,78.6642,153.5007,206.6271,0,U,20402,999,5395,0.0001,8e-08,0,42658.346,1461.387,36542.662,36017.759,PAYLOAD,MEDIUM,JPN,1990-01-01,AFETR,,721578,71441799,0 JCSAT 2,1 20402U 90001B   09147.90266270  .00000008  00000-0  10000-3 0  9993,2 20402 007.2716 078.6642 0061524 153.5007 206.6271 00.98536506 53953
2,GENERATED VIA SPACE-TRACK.ORG API,2009-05-30T09:12:00,18 SPCS,JCSAT 2,1990-001B,EARTH,TEME,UTC,SGP4,2009-05-28T22:01:10.518239,0.98536759,0.0061469,7.2741,78.6474,153.4997,206.6378,0,U,20402,999,5396,0.0001,-1e-07,0,42658.273,1461.383,36542.354,36017.921,PAYLOAD,MEDIUM,JPN,1990-01-01,AFETR,,722041,71455989,0 JCSAT 2,1 20402U 90001B   09148.91748285 -.00000010  00000-0  10000-3 0  9990,2 20402 007.2741 078.6474 0061469 153.4997 206.6378 00.98536759 53968
2,GENERATED VIA SPACE-TRACK.ORG API,2009-05-31T09:16:39,18 SPCS,JCSAT 2,1990-001B,EARTH,TEME,UTC,SGP4,2009-05-29T22:22:31.188288,0.98537153,0.0060766,7.2761,78.6287,154.1584,206.005,0,U,20402,999,5397,0.0001,-3.2e-07,0,42658.159,1461.377,36539.24,36020.807,PAYLOAD,MEDIUM,JPN,1990-01-01,AFETR,,722407,71470955,0 JCSAT 2,1 20402U 90001B   09149.93230542 -.00000032  00000-0  10000-3 0  9999,2 20402 007.2761 078.6287 0060766 154.1584 206.0050 00.98537153 53972
2,GENERATED VIA SPACE-TRACK.ORG API,2009-06-01T11:03:49,18 SPCS,JCSAT 2,1990-001B,EARTH,TEME,UTC,SGP4,2009-05-30T22:43:43.934591,0.98537543,0.0061133,7.2795,78.6138,153.8422,206.2966,0,U,20402,999,5398,0.0001,-5.6e-07,0,42658.046,1461.371,36540.693,36019.13,PAYLOAD,MEDIUM,JPN,1990-01-01,AFETR,,722813,71485662,0 JCSAT 2,1 20402U 90001B   09150.94703628 -.00000056  00000-0  10000-3 0  9998,2 20402 007.2795 078.6138 0061133 153.8422 206.2966 00.98537543 53982
2,GENERATED VIA SPACE-TRACK.ORG API,2009-06-02T01:05:11,18 SPCS,JCSAT 2,1990-001B,EARTH,TEME,UTC,SGP4,2009-05-31T23:05:03.071039,0.98537881,0.0061024,7.2827,78.597,153.4782,206.6665,0,U,20402,999,5399,0.0001,-8.2e-07,0,42657.949,1461.366,36540.13,36019.498,PAYLOAD,MEDIUM,JPN,1990-01-01,AFETR,,723123,71490360,0 JCSAT 2,1 20402U 90001B   09151.96184110 -.00000082  00000-0  10000-3 0  9999,2 20402 007.2827 078.5970 0061024 153.4782 206.6665 00.98537881 53991
2,GENERATED VIA SPACE-TRACK.ORG API,2009-06-02T16:55:05,18 SPCS,JCSAT 2,1990-001B,EARTH,TEME,UTC,SGP4,2009-06-01T23:26:18.905279,0.98538276,0.0060893,7.2856,78.5805,153.8548,206.2921,0,U,20402,999,5400,0.0001,-1.09e-06,0,42657.835,1461.361,36539.456,36019.943,PAYLOAD,MEDIUM,JPN,1990-01-01,AFETR,,723482,71502664,0 JCSAT 2,1 20402U 90001B   09152.97660770 -.00000109  00000-0  10000-3 0  9992,2 20402 007.2856 078.5805 0060893 153.8548 206.2921 00.98538276 54000
